[{"OBJECT_NAME":"POLAR SCOUT YUKON","OBJECT_ID":"2018-099BC","EPOCH":"2026-03-09T17:15:46.142784","MEAN_MOTION":15.33775706,"ECCENTRICITY":0.0003933,"INCLINATION":97.4761,"RA_OF_ASC_NODE":140.0523,"ARG_OF_PERICENTER":328.7158,"MEAN_ANOMALY":31.385,"EPHEMERIS_TYPE":0,"CLASSIFICATION_TYPE":"U","NORAD_CAT_ID":43808,"ELEMENT_SET_NO":999,"REV_AT_EPOCH":39824,"BSTAR":0.00070317967,"MEAN_MOTION_DOT":0.00022935,"MEAN_MOTION_DDOT":0},{"OBJECT_NAME":"STARLINK-35471","OBJECT_ID":"2025-223L","EPOCH":"2026-03-09T22:03:55.960416","MEAN_MOTION":15.30215247,"ECCENTRICITY":0.00011472,"INCLINATION":53.1576,"RA_OF_ASC_NODE":292.9085,"ARG_OF_PERICENTER":57.7035,"MEAN_ANOMALY":302.4077,"EPHEMERIS_TYPE":0,"CLASSIFICATION_TYPE":"U","NORAD_CAT_ID":65864,"ELEMENT_SET_NO":999,"REV_AT_EPOCH":2424,"BSTAR":0.0011246856,"MEAN_MOTION_DOT":0.00033115,"MEAN_MOTION_DDOT":0}]
